{
  "norad_id": 57871,
  "name": "STARLINK-30444",
  "history": [
    {
      "epoch": "2026-03-28T13:43:42.304224Z",
      "apogee_km": 483.9035161037509,
      "perigee_km": 481.88774471693614,
      "latitude_deg": -5.023585299761587e-05,
      "longitude_deg": 146.78373694499,
      "height_km": 482.60021061824546,
      "semi_major_axis_km": 6861.032630410343,
      "eccentricity": 0.0001469,
      "inclination_deg": 43.002,
      "raan_deg": 178.7006,
      "arg_perigee_deg": 274.1198,
      "mean_anomaly_deg": 85.9485,
      "mean_motion_rev_day": 15.27631253
    },
    {
      "epoch": "2026-03-28T23:08:38.634720Z",
      "apogee_km": 483.3132490447688,
      "perigee_km": 482.6134168108101,
      "latitude_deg": -2.2516241853988614e-05,
      "longitude_deg": 2.9445690503490156,
      "height_km": 482.87536572349177,
      "semi_major_axis_km": 6861.100332927789,
      "eccentricity": 5.1e-05,
      "inclination_deg": 42.9969,
      "raan_deg": 176.4828,
      "arg_perigee_deg": 113.1352,
      "mean_anomaly_deg": 246.9553,
      "mean_motion_rev_day": 15.27608642
    },
    {
      "epoch": "2026-03-29T22:40:58.698912Z",
      "apogee_km": 484.352080410762,
      "perigee_km": 481.59940197899414,
      "latitude_deg": 1.598855555301729e-05,
      "longitude_deg": 3.3598012314078423,
      "height_km": 482.6259121411796,
      "semi_major_axis_km": 6861.112741194877,
      "eccentricity": 0.0002006,
      "inclination_deg": 43.0043,
      "raan_deg": 170.9483,
      "arg_perigee_deg": 275.3151,
      "mean_anomaly_deg": 84.7472,
      "mean_motion_rev_day": 15.27604498
    },
    {
      "epoch": "2026-03-29T22:40:58.699776Z",
      "apogee_km": 484.3521490218891,
      "perigee_km": 481.59933336786617,
      "latitude_deg": 1.6768498202255627e-05,
      "longitude_deg": 3.359798453199664,
      "height_km": 482.62590578678055,
      "semi_major_axis_km": 6861.112741194877,
      "eccentricity": 0.00020061,
      "inclination_deg": 43.0043,
      "raan_deg": 170.9483,
      "arg_perigee_deg": 275.3151,
      "mean_anomaly_deg": 84.7472,
      "mean_motion_rev_day": 15.27604498
    },
    {
      "epoch": "2026-03-30T14:22:33.061728Z",
      "apogee_km": 483.7049828832769,
      "perigee_km": 482.29817502904734,
      "latitude_deg": -5.306128650138832e-06,
      "longitude_deg": 123.62811722340894,
      "height_km": 482.69019686373724,
      "semi_major_axis_km": 6861.138578956162,
      "eccentricity": 0.00010252,
      "inclination_deg": 43.003,
      "raan_deg": 167.2543,
      "arg_perigee_deg": 277.1953,
      "mean_anomaly_deg": 82.8782,
      "mean_motion_rev_day": 15.27595869
    },
    {
      "epoch": "2026-03-31T12:20:44.018304Z",
      "apogee_km": 483.97089209996193,
      "perigee_km": 481.9468688152283,
      "latitude_deg": 6.556589439594075e-05,
      "longitude_deg": 148.01027764291686,
      "height_km": 482.8036810874898,
      "semi_major_axis_km": 6861.095880457595,
      "eccentricity": 0.0001475,
      "inclination_deg": 43.0044,
      "raan_deg": 162.0843,
      "arg_perigee_deg": 266.1717,
      "mean_anomaly_deg": 93.8967,
      "mean_motion_rev_day": 15.27610129
    },
    {
      "epoch": "2026-04-01T15:01:24.138048Z",
      "apogee_km": 484.0566340911264,
      "perigee_km": 481.96947224495307,
      "latitude_deg": 3.2283840114800625e-05,
      "longitude_deg": 100.46995924071275,
      "height_km": 482.66891430784784,
      "semi_major_axis_km": 6861.150053168039,
      "eccentricity": 0.0001521,
      "inclination_deg": 43.004,
      "raan_deg": 155.8068,
      "arg_perigee_deg": 276.6798,
      "mean_anomaly_deg": 83.3881,
      "mean_motion_rev_day": 15.27592037
    },
    {
      "epoch": "2026-04-02T20:50:22.319232Z",
      "apogee_km": 483.0752309001791,
      "perigee_km": 482.8145097891056,
      "latitude_deg": 7.2678070141238535e-06,
      "longitude_deg": 4.986505796026343,
      "height_km": 482.60643914923077,
      "semi_major_axis_km": 6861.081870344642,
      "eccentricity": 1.9e-05,
      "inclination_deg": 42.9977,
      "raan_deg": 148.7903,
      "arg_perigee_deg": 330.705,
      "mean_anomaly_deg": 29.3791,
      "mean_motion_rev_day": 15.27614808
    },
    {
      "epoch": "2026-04-03T10:57:45.662400Z",
      "apogee_km": 484.03574816771743,
      "perigee_km": 481.8256610387107,
      "latitude_deg": 4.9793970668695774e-05,
      "longitude_deg": 149.23517080290935,
      "height_km": 482.9108599480264,
      "semi_major_axis_km": 6861.067704603214,
      "eccentricity": 0.00016106,
      "inclination_deg": 43.0028,
      "raan_deg": 145.4662,
      "arg_perigee_deg": 259.4129,
      "mean_anomaly_deg": 100.6542,
      "mean_motion_rev_day": 15.27619539
    },
    {
      "epoch": "2026-04-04T12:04:16.238208Z",
      "apogee_km": 484.2070916072562,
      "perigee_km": 481.8760747954002,
      "latitude_deg": -3.5497403051456836e-05,
      "longitude_deg": 125.66861095843146,
      "height_km": 482.4768402712121,
      "semi_major_axis_km": 6861.178583201328,
      "eccentricity": 0.00016987,
      "inclination_deg": 43.0042,
      "raan_deg": 139.5583,
      "arg_perigee_deg": 287.0712,
      "mean_anomaly_deg": 72.9953,
      "mean_motion_rev_day": 15.27582509
    },
    {
      "epoch": "2026-04-05T13:10:48.171360Z",
      "apogee_km": 484.1163400088635,
      "perigee_km": 482.0771813351912,
      "latitude_deg": -4.48310248488516e-06,
      "longitude_deg": 102.09470311005204,
      "height_km": 482.96454484974237,
      "semi_major_axis_km": 6861.2337606720275,
      "eccentricity": 0.0001486,
      "inclination_deg": 43.0043,
      "raan_deg": 133.6486,
      "arg_perigee_deg": 264.9049,
      "mean_anomaly_deg": 95.1633,
      "mean_motion_rev_day": 15.27564082
    },
    {
      "epoch": "2026-04-06T03:18:13.125888Z",
      "apogee_km": 483.7634375232128,
      "perigee_km": 482.34070135777347,
      "latitude_deg": -1.0081731698380803e-05,
      "longitude_deg": -113.66421678847318,
      "height_km": 483.10410060955576,
      "semi_major_axis_km": 6861.189069440493,
      "eccentricity": 0.00010368,
      "inclination_deg": 43.002,
      "raan_deg": 130.3237,
      "arg_perigee_deg": 247.2123,
      "mean_anomaly_deg": 112.8619,
      "mean_motion_rev_day": 15.27579007
    },
    {
      "epoch": "2026-04-07T10:41:19.167072Z",
      "apogee_km": 484.02358557754997,
      "perigee_km": 482.03233828229804,
      "latitude_deg": -2.8134835557899626e-05,
      "longitude_deg": 126.88855229751465,
      "height_km": 482.64897887842716,
      "semi_major_axis_km": 6861.164961929923,
      "eccentricity": 0.00014511,
      "inclination_deg": 43.0042,
      "raan_deg": 122.9406,
      "arg_perigee_deg": 279.0265,
      "mean_anomaly_deg": 81.0422,
      "mean_motion_rev_day": 15.27587058
    }
  ]
}